OBJECT C                
1 57582U 23117C   24144.16151559  .00009446  00000+0  49884-3 0  9997
2 57582  97.4873 216.5623 0011197  29.2870 330.8988 15.15676301 43392
